STARLINK-32707          
1 62478U 24254S   26068.23707882  .00024903  00000+0  91105-3 0  9999
2 62478  43.0003  18.9358 0002324 257.6288 102.4304 15.27592539 67580
PELICAN-6               
1 66703U 25276AP  26068.70709364  .00077979  00000+0  29726-2 0  9998
2 66703  97.4276 144.2072 0003569 157.8575 202.2819 15.26377980 15334
